OBJECT_NAME,OBJECT_ID,EPOCH,MEAN_MOTION,ECCENTRICITY,INCLINATION,RA_OF_ASC_NODE,ARG_OF_PERICENTER,MEAN_ANOMALY,EPHEMERIS_TYPE,CLASSIFICATION_TYPE,NORAD_CAT_ID,ELEMENT_SET_NO,REV_AT_EPOCH,BSTAR,MEAN_MOTION_DOT,MEAN_MOTION_DDOT
STARLINK-38067,2026-150J,2026-07-19T06:48:59.293440,15.75203959,.00005428,97.2870,38.8283,104.0276,256.1050,0,U,69747,999,396,.7442818E-3,.112423E-2,0
STARLINK-37988,2026-150K,2026-07-19T02:12:01.026720,15.75176575,.00018863,97.2845,38.6309,74.9287,285.2187,0,U,69748,999,393,.86783168E-3,.131248E-2,0
STARLINK-37987,2026-150L,2026-07-19T06:40:21.394560,15.75231280,.00014249,97.2845,38.8366,84.2667,275.8760,0,U,69749,999,396,.11711279E-2,.178571E-2,0
STARLINK-38037,2026-150M,2026-07-19T01:26:59.435232,15.80816640,.00019856,97.2848,38.6752,76.0288,284.1201,0,U,69750,999,393,.10371471E-2,.203229E-2,0
STARLINK-38049,2026-150N,2026-07-19T02:56:40.064352,15.80784206,.00011758,97.2836,38.7424,92.3123,267.8280,0,U,69751,999,394,.90336986E-3,.176178E-2,0
STARLINK-38029,2026-150P,2026-07-19T01:42:01.938528,15.75171997,.00016408,97.2846,38.6614,83.1683,276.9769,0,U,69752,999,393,.10772653E-2,.163539E-2,0
STARLINK-37965,2026-150Q,2026-07-19T01:51:41.603040,15.75190353,.00024549,97.2855,38.6491,74.8235,285.3302,0,U,69753,999,393,.72306805E-3,.10912E-2,0
STARLINK-38048,2026-150R,2026-07-19T02:47:51.521856,15.80839012,.00010012,97.2833,38.7512,79.2757,280.8624,0,U,69754,999,394,.13263053E-2,.261963E-2,0
STARLINK-38006,2026-150S,2026-07-19T01:38:28.980672,15.75189780,.00029414,97.2845,38.6643,71.0154,289.1430,0,U,69755,999,393,.10691009E-2,.162421E-2,0
STARLINK-38036,2026-150T,2026-07-19T06:00:02.000160,15.75252942,.00013451,97.2854,38.8734,92.8856,254.5587,0,U,69756,999,394,-.12380905E-2,-.18143E-2,0
STARLINK-38058,2026-150U,2026-07-19T06:00:02.000160,15.75215788,.00016041,97.2853,38.8971,110.9453,294.4789,0,U,69757,999,394,-.72290314E-3,-.106743E-2,0
STARLINK-38066,2026-150V,2026-07-19T00:00:00.999648,15.80043025,.00016054,97.2847,38.6399,95.0237,347.5572,0,U,69758,999,390,-.11660207E-1,-.1886094E-1,0
STARLINK-38035,2026-150W,2026-07-16T12:23:54.049920,15.80943955,.0001208,97.2826,36.0135,127.8766,232.2612,0,U,69759,999,353,.16439E-2,.328828E-2,0
STARLINK-38056,2026-150X,2026-07-19T02:36:13.559328,15.80825541,.00011417,97.2838,38.7632,89.7498,270.3901,0,U,69760,999,394,.10247469E-2,.200817E-2,0
STARLINK-38069,2026-150Y,2026-07-19T06:00:02.000160,15.75238601,.00008338,97.2860,38.9139,80.7669,0.6633,0,U,69761,999,394,-.96447162E-3,-.141915E-2,0
STARLINK-38019,2026-150Z,2026-07-19T06:11:53.624256,15.75211243,.00008627,97.2841,38.8647,85.9992,274.1372,0,U,69762,999,396,.53928538E-3,.81149E-3,0
KUIPER-00258,2026-151A,2026-07-19T07:17:14.299008,15.34705130,.00110752,51.8675,160.7617,185.4867,174.5998,0,U,69763,999,264,.33876865E-3,.11223E-3,0
KUIPER-00526,2026-151B,2026-07-19T06:46:40.636992,15.37376386,.00058576,51.8775,160.6313,153.5052,206.6236,0,U,69764,999,264,.22461195E-3,.7977E-4,0
KUIPER-00558,2026-151C,2026-07-19T06:00:02.000160,15.32877333,.00067578,51.8789,160.9126,166.0314,312.3854,0,U,69765,999,324,-.40829617E-1,-.1196513E-1,0
KUIPER-00569,2026-151D,2026-07-19T00:00:00.999648,15.37536026,.00051062,51.8800,161.9756,149.5744,96.8948,0,U,69766,999,169,-.28959487E-3,-.11214E-3,0
KUIPER-00589,2026-151E,2026-07-19T06:45:23.911200,15.37402481,.0005251,51.8764,160.6255,153.6098,206.5157,0,U,69767,999,264,.22504368E-3,.8E-4,0
KUIPER-00598,2026-151F,2026-07-19T06:00:02.000160,15.34342787,.00084168,51.8646,161.0217,176.5077,244.4944,0,U,69768,999,318,.52233239E-3,.1731E-3,0
KUIPER-00604,2026-151G,2026-07-19T06:32:02.561568,15.38302919,.00026698,51.8803,160.5640,117.4269,242.6990,0,U,69769,999,264,.29691197E-3,.11007E-3,0
KUIPER-00609,2026-151H,2026-07-19T06:25:29.091648,15.38692887,.00012669,51.8808,160.5336,60.8220,299.2894,0,U,69770,999,264,.20782553E-3,.7683E-4,0
KUIPER-00611,2026-151J,2026-07-19T06:28:39.803232,15.38507944,.00016153,51.8812,160.5443,111.8782,248.2377,0,U,69771,999,264,.18619412E-3,.6799E-4,0
KUIPER-00612,2026-151K,2026-07-19T06:36:46.011456,15.38005424,.00036125,51.8796,160.5871,128.9716,231.1593,0,U,69772,999,264,.30775101E-3,.11312E-3,0
KUIPER-00614,2026-151L,2026-07-19T06:33:25.458048,15.38209464,.00026781,51.8809,160.5678,135.0270,225.0934,0,U,69773,999,264,.2746802E-3,.10121E-3,0
KUIPER-00615,2026-151M,2026-07-19T06:48:06.999840,15.37284787,.00060306,51.8784,160.6376,161.0575,199.0637,0,U,69774,999,264,.23637798E-3,.839E-4,0
KUIPER-00616,2026-151N,2026-07-19T06:30:38.228256,15.38386622,.0002951,51.8789,160.5600,135.6444,224.4780,0,U,69775,999,264,.35407852E-3,.13244E-3,0
KUIPER-00617,2026-151P,2026-07-19T06:38:55.886208,15.37847087,.0003942,51.8804,160.5953,148.3664,211.7561,0,U,69776,999,264,.28718417E-3,.10473E-3,0
