STARLINK-38067          
1 69747U 26150J   26200.28401960  .00112423  00000+0  74428-3 0  9997
2 69747  97.2870  38.8283 0000542 104.0276 256.1050 15.75203959  3964
STARLINK-37988          
1 69748U 26150K   26200.09167855  .00131248  00000+0  86783-3 0  9992
2 69748  97.2845  38.6309 0001886  74.9287 285.2187 15.75176575  3937
STARLINK-37987          
1 69749U 26150L   26200.27802540  .00178571  00000+0  11711-2 0  9998
2 69749  97.2845  38.8366 0001424  84.2667 275.8760 15.75231280  3967
STARLINK-38037          
1 69750U 26150M   26200.06041013  .00203229  00000+0  10371-2 0  9997
2 69750  97.2848  38.6752 0001985  76.0288 284.1201 15.80816640  3934
STARLINK-38049          
1 69751U 26150N   26200.12268593  .00176178  00000+0  90337-3 0  9992
2 69751  97.2836  38.7424 0001175  92.3123 267.8280 15.80784206  3947
STARLINK-38029          
1 69752U 26150P   26200.07085577  .00163539  00000+0  10773-2 0  9998
2 69752  97.2846  38.6614 0001640  83.1683 276.9769 15.75171997  3938
STARLINK-37965          
1 69753U 26150Q   26200.07756485  .00109120  00000+0  72307-3 0  9990
2 69753  97.2855  38.6491 0002454  74.8235 285.3302 15.75190353  3930
STARLINK-38048          
1 69754U 26150R   26200.11656854  .00261963  00000+0  13263-2 0  9994
2 69754  97.2833  38.7512 0001001  79.2757 280.8624 15.80839012  3943
STARLINK-38006          
1 69755U 26150S   26200.06839098  .00162421  00000+0  10691-2 0  9993
2 69755  97.2845  38.6643 0002941  71.0154 289.1430 15.75189780  3936
STARLINK-38036          
1 69756U 26150T   26200.25002315 -.00181430  00000+0 -12381-2 0  9990
2 69756  97.2854  38.8734 0001345  92.8856 254.5587 15.75252942  3948
STARLINK-38058          
1 69757U 26150U   26200.25002315 -.00106743  00000+0 -72290-3 0  9991
2 69757  97.2853  38.8971 0001604 110.9453 294.4789 15.75215788  3948
STARLINK-38066          
1 69758U 26150V   26200.00001157 -.01886094  00000+0 -11660-1 0  9995
2 69758  97.2847  38.6399 0001605  95.0237 347.5572 15.80043025  3903
STARLINK-38035          
1 69759U 26150W   26197.51659780  .00328828  00000+0  16439-2 0  9991
2 69759  97.2826  36.0135 0001208 127.8766 232.2612 15.80943955  3536
STARLINK-38056          
1 69760U 26150X   26200.10849027  .00200817  00000+0  10247-2 0  9996
2 69760  97.2838  38.7632 0001141  89.7498 270.3901 15.80825541  3945
STARLINK-38069          
1 69761U 26150Y   26200.25002315 -.00141915  00000+0 -96447-3 0  9996
2 69761  97.2860  38.9139 0000833  80.7669   0.6633 15.75238601  3948
STARLINK-38019          
1 69762U 26150Z   26200.25825954  .00081149  00000+0  53929-3 0  9997
2 69762  97.2841  38.8647 0000862  85.9992 274.1372 15.75211243  3962
KUIPER-00258            
1 69763U 26151A   26200.30363772  .00011223  00000+0  33877-3 0  9996
2 69763  51.8675 160.7617 0011075 185.4867 174.5998 15.34705130  2640
KUIPER-00526            
1 69764U 26151B   26200.28241478  .00007977  00000+0  22461-3 0  9990
2 69764  51.8775 160.6313 0005857 153.5052 206.6236 15.37376386  2649
KUIPER-00558            
1 69765U 26151C   26200.25002315 -.01196513  00000+0 -40830-1 0  9999
2 69765  51.8789 160.9126 0006757 166.0314 312.3854 15.32877333  3241
KUIPER-00569            
1 69766U 26151D   26200.00001157 -.00011214  00000+0 -28959-3 0  9999
2 69766  51.8800 161.9756 0005106 149.5744  96.8948 15.37536026  1697
KUIPER-00589            
1 69767U 26151E   26200.28152675  .00008000  00000+0  22504-3 0  9999
2 69767  51.8764 160.6255 0005251 153.6098 206.5157 15.37402481  2641
KUIPER-00598            
1 69768U 26151F   26200.25002315  .00017310  00000+0  52233-3 0  9998
2 69768  51.8646 161.0217 0008416 176.5077 244.4944 15.34342787  3185
KUIPER-00604            
1 69769U 26151G   26200.27225187  .00011007  00000+0  29691-3 0  9994
2 69769  51.8803 160.5640 0002669 117.4269 242.6990 15.38302919  2644
KUIPER-00609            
1 69770U 26151H   26200.26769782  .00007683  00000+0  20783-3 0  9997
2 69770  51.8808 160.5336 0001266  60.8220 299.2894 15.38692887  2640
KUIPER-00611            
1 69771U 26151J   26200.26990513  .00006799  00000+0  18619-3 0  9998
2 69771  51.8812 160.5443 0001615 111.8782 248.2377 15.38507944  2642
KUIPER-00612            
1 69772U 26151K   26200.27553254  .00011312  00000+0  30775-3 0  9991
2 69772  51.8796 160.5871 0003612 128.9716 231.1593 15.38005424  2641
KUIPER-00614            
1 69773U 26151L   26200.27321132  .00010121  00000+0  27468-3 0  9992
2 69773  51.8809 160.5678 0002678 135.0270 225.0934 15.38209464  2648
KUIPER-00615            
1 69774U 26151M   26200.28341435  .00008390  00000+0  23638-3 0  9992
2 69774  51.8784 160.6376 0006030 161.0575 199.0637 15.37284787  2640
KUIPER-00616            
1 69775U 26151N   26200.27127579  .00013244  00000+0  35408-3 0  9995
2 69775  51.8789 160.5600 0002951 135.6444 224.4780 15.38386622  2649
KUIPER-00617            
1 69776U 26151P   26200.27703572  .00010473  00000+0  28718-3 0  9996
2 69776  51.8804 160.5953 0003942 148.3664 211.7561 15.37847087  2647
